{
  "type": "FeatureCollection",
  "features": [
    {
      "type": "Feature",
      "properties": {
        "norad_id": 30066,
        "name": "FENGYUN 1C DEB",
        "group": "fengyun-1c-debris",
        "lat": 68.27402320166647,
        "lon": -35.26132726053041,
        "alt_km": 901.723342154889,
        "timestamp": "2025-12-22T23:36:20.986976+00:00",
        "meta_object_name": "FENGYUN 1C DEB",
        "meta_object_id": "1999-025PT",
        "meta_epoch": "2025-12-22T12:00:02.745792",
        "meta_mean_motion": 14.19116046,
        "meta_eccentricity": 0.01168568,
        "meta_inclination": 98.635,
        "meta_ra_of_asc_node": 346.6847,
        "meta_arg_of_pericenter": 233.4991,
        "meta_mean_anomaly": 247.9953,
        "meta_ephemeris_type": 0,
        "meta_classification_type": "U",
        "meta_norad_cat_id": 30066,
        "meta_element_set_no": 999,
        "meta_rev_at_epoch": 97975,
        "meta_bstar": 0.00012437525,
        "meta_mean_motion_dot": 2.35e-06,
        "meta_mean_motion_ddot": 0,
        "tle_line1": "1 30066U 99025PT  25356.50003178  .00000235  00000+0  12438-3 0  9995",
        "tle_line2": "2 30066  98.6350 346.6847 0116856 233.4991 247.9953 14.19116046979753"
      },
      "geometry": {
        "type": "Point",
        "coordinates": [
          -35.26132726053041,
          68.27402320166647
        ]
      }
    },
    {
      "type": "Feature",
      "properties": {
        "norad_id": 30067,
        "name": "FENGYUN 1C DEB",
        "group": "fengyun-1c-debris",
        "lat": 1.1612200296394641,
        "lon": 63.55332480290181,
        "alt_km": 854.7963599633467,
        "timestamp": "2025-12-22T23:36:20.986986+00:00",
        "meta_object_name": "FENGYUN 1C DEB",
        "meta_object_id": "1999-025PU",
        "meta_epoch": "2025-12-22T03:32:09.490848",
        "meta_mean_motion": 14.43715111,
        "meta_eccentricity": 0.01513718,
        "meta_inclination": 98.7656,
        "meta_ra_of_asc_node": 242.513,
        "meta_arg_of_pericenter": 350.0518,
        "meta_mean_anomaly": 165.2177,
        "meta_ephemeris_type": 0,
        "meta_classification_type": "U",
        "meta_norad_cat_id": 30067,
        "meta_element_set_no": 999,
        "meta_rev_at_epoch": 99334,
        "meta_bstar": 0.00039387646,
        "meta_mean_motion_dot": 1.484e-05,
        "meta_mean_motion_ddot": 0,
        "tle_line1": "1 30067U 99025PU  25356.14733207  .00001484  00000+0  39388-3 0  9999",
        "tle_line2": "2 30067  98.7656 242.5130 0151371 350.0518 165.2177 14.43715111993341"
      },
      "geometry": {
        "type": "Point",
        "coordinates": [
          63.55332480290181,
          1.1612200296394641
        ]
      }
    },
    {
      "type": "Feature",
      "properties": {
        "norad_id": 30068,
        "name": "FENGYUN 1C DEB",
        "group": "fengyun-1c-debris",
        "lat": -26.17700172186323,
        "lon": -11.127925805955867,
        "alt_km": 724.7846864633084,
        "timestamp": "2025-12-22T23:36:20.986996+00:00",
        "meta_object_name": "FENGYUN 1C DEB",
        "meta_object_id": "1999-025PV",
        "meta_epoch": "2025-12-22T10:07:20.490816",
        "meta_mean_motion": 14.12055888,
        "meta_eccentricity": 0.01895164,
        "meta_inclination": 98.7373,
        "meta_ra_of_asc_node": 343.9889,
        "meta_arg_of_pericenter": 321.2694,
        "meta_mean_anomaly": 37.5016,
        "meta_ephemeris_type": 0,
        "meta_classification_type": "U",
        "meta_norad_cat_id": 30068,
        "meta_element_set_no": 999,
        "meta_rev_at_epoch": 97480,
        "meta_bstar": 0.00017313373,
        "meta_mean_motion_dot": 3.31e-06,
        "meta_mean_motion_ddot": 0,
        "tle_line1": "1 30068U 99025PV  25356.42176494  .00000331  00000+0  17313-3 0  9994",
        "tle_line2": "2 30068  98.7373 343.9889 0189516 321.2694  37.5016 14.12055888974809"
      },
      "geometry": {
        "type": "Point",
        "coordinates": [
          -11.127925805955867,
          -26.17700172186323
        ]
      }
    },
    {
      "type": "Feature",
      "properties": {
        "norad_id": 30069,
        "name": "FENGYUN 1C DEB",
        "group": "fengyun-1c-debris",
        "lat": 15.35829608167788,
        "lon": 160.9689415800864,
        "alt_km": 903.6760217569408,
        "timestamp": "2025-12-22T23:36:20.987006+00:00",
        "meta_object_name": "FENGYUN 1C DEB",
        "meta_object_id": "1999-025PW",
        "meta_epoch": "2025-12-22T11:26:38.212224",
        "meta_mean_motion": 14.05233086,
        "meta_eccentricity": 0.00495026,
        "meta_inclination": 98.8023,
        "meta_ra_of_asc_node": 338.038,
        "meta_arg_of_pericenter": 26.2256,
        "meta_mean_anomaly": 95.6281,
        "meta_ephemeris_type": 0,
        "meta_classification_type": "U",
        "meta_norad_cat_id": 30069,
        "meta_element_set_no": 999,
        "meta_rev_at_epoch": 96983,
        "meta_bstar": 0.00039091384,
        "meta_mean_motion_dot": 5.96e-06,
        "meta_mean_motion_ddot": 0,
        "tle_line1": "1 30069U 99025PW  25356.47683116  .00000596  00000+0  39091-3 0  9994",
        "tle_line2": "2 30069  98.8023 338.0380 0049502  26.2256  95.6281 14.05233086969836"
      },
      "geometry": {
        "type": "Point",
        "coordinates": [
          160.9689415800864,
          15.35829608167788
        ]
      }
    },
    {
      "type": "Feature",
      "properties": {
        "norad_id": 30070,
        "name": "FENGYUN 1C DEB",
        "group": "fengyun-1c-debris",
        "lat": 53.048072925464886,
        "lon": -112.99987921266974,
        "alt_km": 1081.184717565111,
        "timestamp": "2025-12-22T23:36:20.987029+00:00",
        "meta_object_name": "FENGYUN 1C DEB",
        "meta_object_id": "1999-025PX",
        "meta_epoch": "2025-12-21T22:20:29.555232",
        "meta_mean_motion": 14.09981977,
        "meta_eccentricity": 0.032796,
        "meta_inclination": 98.2853,
        "meta_ra_of_asc_node": 54.8592,
        "meta_arg_of_pericenter": 292.4603,
        "meta_mean_anomaly": 254.3996,
        "meta_ephemeris_type": 0,
        "meta_classification_type": "U",
        "meta_norad_cat_id": 30070,
        "meta_element_set_no": 999,
        "meta_rev_at_epoch": 96008,
        "meta_bstar": 0.0014362615,
        "meta_mean_motion_dot": 4.137e-05,
        "meta_mean_motion_ddot": 0,
        "tle_line1": "1 30070U 99025PX  25355.93089763  .00004137  00000+0  14363-2 0  9993",
        "tle_line2": "2 30070  98.2853  54.8592 0327960 292.4603 254.3996 14.09981977960089"
      },
      "geometry": {
        "type": "Point",
        "coordinates": [
          -112.99987921266974,
          53.048072925464886
        ]
      }
    },
    {
      "type": "Feature",
      "properties": {
        "norad_id": 30071,
        "name": "FENGYUN 1C DEB",
        "group": "fengyun-1c-debris",
        "lat": 71.84527464571336,
        "lon": -55.74275781087186,
        "alt_km": 686.8734221344139,
        "timestamp": "2025-12-22T23:36:20.987040+00:00",
        "meta_object_name": "FENGYUN 1C DEB",
        "meta_object_id": "1999-025PY",
        "meta_epoch": "2025-12-21T06:01:51.625344",
        "meta_mean_motion": 14.52283384,
        "meta_eccentricity": 0.0038489,
        "meta_inclination": 98.6589,
        "meta_ra_of_asc_node": 94.7787,
        "meta_arg_of_pericenter": 84.0002,
        "meta_mean_anomaly": 330.2133,
        "meta_ephemeris_type": 0,
        "meta_classification_type": "U",
        "meta_norad_cat_id": 30071,
        "meta_element_set_no": 999,
        "meta_rev_at_epoch": 98350,
        "meta_bstar": 0.0016577,
        "meta_mean_motion_dot": 6.759e-05,
        "meta_mean_motion_ddot": 0,
        "tle_line1": "1 30071U 99025PY  25355.25129196  .00006759  00000+0  16577-2 0  9995",
        "tle_line2": "2 30071  98.6589  94.7787 0038489  84.0002 330.2133 14.52283384983506"
      },
      "geometry": {
        "type": "Point",
        "coordinates": [
          -55.74275781087186,
          71.84527464571336
        ]
      }
    },
    {
      "type": "Feature",
      "properties": {
        "norad_id": 30072,
        "name": "FENGYUN 1C DEB",
        "group": "fengyun-1c-debris",
        "lat": -76.61185324500748,
        "lon": -76.36748596220917,
        "alt_km": 731.4892455020563,
        "timestamp": "2025-12-22T23:36:20.987050+00:00",
        "meta_object_name": "FENGYUN 1C DEB",
        "meta_object_id": "1999-025PZ",
        "meta_epoch": "2025-12-22T09:02:16.681344",
        "meta_mean_motion": 14.37945567,
        "meta_eccentricity": 0.00601066,
        "meta_inclination": 99.0763,
        "meta_ra_of_asc_node": 145.1832,
        "meta_arg_of_pericenter": 244.7473,
        "meta_mean_anomaly": 114.7476,
        "meta_ephemeris_type": 0,
        "meta_classification_type": "U",
        "meta_norad_cat_id": 30072,
        "meta_element_set_no": 999,
        "meta_rev_at_epoch": 97309,
        "meta_bstar": 0.0034564504,
        "meta_mean_motion_dot": 0.00010631,
        "meta_mean_motion_ddot": 0,
        "tle_line1": "1 30072U 99025PZ  25356.37658196  .00010631  00000+0  34565-2 0  9998",
        "tle_line2": "2 30072  99.0763 145.1832 0060106 244.7473 114.7476 14.37945567973095"
      },
      "geometry": {
        "type": "Point",
        "coordinates": [
          -76.36748596220917,
          -76.61185324500748
        ]
      }
    }
  ]
}